<?xml version="1.0" encoding="UTF-8"?>
<kml xmlns="http://www.opengis.net/kml/2.2" xmlns:gx="http://www.google.com/kml/ext/2.2" xmlns:kml="http://www.opengis.net/kml/2.2" xmlns:atom="http://www.w3.org/2005/Atom">
<Document id="document">
	<name>Untitled map</name>
	<gx:CascadingStyle kml:id="__managed_style_2DBE62C8EB3D9A72F431">
		<styleUrl>https://earth.google.com/balloon_components/base/1.1.0.0/card_template.kml#main</styleUrl>
		<Style>
			<IconStyle>
				<scale>1.2</scale>
				<Icon>
					<href>https://earth.google.com/earth/document/icon?color=fbc02d&amp;id=2000&amp;scale=4</href>
				</Icon>
				<hotSpot x="64" y="128" xunits="pixels" yunits="insetPixels"/>
			</IconStyle>
			<LabelStyle>
			</LabelStyle>
			<LineStyle>
				<color>ff2dc0fb</color>
				<width>6</width>
			</LineStyle>
			<PolyStyle>
				<color>40ffffff</color>
			</PolyStyle>
			<BalloonStyle>
			</BalloonStyle>
		</Style>
	</gx:CascadingStyle>
	<gx:CascadingStyle kml:id="__managed_style_173D94D9E53D9A72F431">
		<styleUrl>https://earth.google.com/balloon_components/base/1.1.0.0/card_template.kml#main</styleUrl>
		<Style>
			<IconStyle>
				<Icon>
					<href>https://earth.google.com/earth/document/icon?color=fbc02d&amp;id=2000&amp;scale=4</href>
				</Icon>
				<hotSpot x="64" y="128" xunits="pixels" yunits="insetPixels"/>
			</IconStyle>
			<LabelStyle>
			</LabelStyle>
			<LineStyle>
				<color>ff2dc0fb</color>
				<width>4</width>
			</LineStyle>
			<PolyStyle>
				<color>40ffffff</color>
			</PolyStyle>
			<BalloonStyle>
			</BalloonStyle>
		</Style>
	</gx:CascadingStyle>
	<StyleMap id="__managed_style_02AF5381543D9A72F431">
		<Pair>
			<key>normal</key>
			<styleUrl>#__managed_style_173D94D9E53D9A72F431</styleUrl>
		</Pair>
		<Pair>
			<key>highlight</key>
			<styleUrl>#__managed_style_2DBE62C8EB3D9A72F431</styleUrl>
		</Pair>
	</StyleMap>
	<Placemark id="00877778853D9A719F50">
		<name>Bentota</name>
		<description><![CDATA[<div>District: Galle<br></div><div><br></div>]]></description>
		<LookAt>
			<longitude>80.00365785</longitude>
			<latitude>6.42565665</latitude>
			<altitude>0</altitude>
			<heading>0</heading>
			<tilt>0</tilt>
			<gx:fovy>35</gx:fovy>
			<range>11550.48677543977</range>
			<altitudeMode>relativeToGround</altitudeMode>
		</LookAt>
		<styleUrl>#__managed_style_02AF5381543D9A72F431</styleUrl>
		<Point>
			<altitudeMode>relativeToGround</altitudeMode>
			<coordinates>80.002455,6.4187604,0</coordinates>
		</Point>
	</Placemark>
	<Placemark id="02285A7E443D9A736E9F">
		<name>Sigiriya</name>
		<description><![CDATA[<div>District:&nbsp;Sigiriya<br></div><div><br></div>]]></description>
		<LookAt>
			<longitude>80.760257</longitude>
			<latitude>7.957032699999999</latitude>
			<altitude>0</altitude>
			<heading>0</heading>
			<tilt>0</tilt>
			<gx:fovy>35</gx:fovy>
			<range>1045.16237024291</range>
			<altitudeMode>relativeToGround</altitudeMode>
		</LookAt>
		<styleUrl>#__managed_style_02AF5381543D9A72F431</styleUrl>
		<Point>
			<altitudeMode>relativeToGround</altitudeMode>
			<coordinates>80.760257,7.9570327,0</coordinates>
		</Point>
	</Placemark>
	<Placemark id="048766A55E3D9A744BBF">
		<name>Nuwara Eliya</name>
		<description><![CDATA[<div>District: Nuwara Eliya<br></div>]]></description>
		<LookAt>
			<longitude>80.780947</longitude>
			<latitude>6.9513662</latitude>
			<altitude>0</altitude>
			<heading>0</heading>
			<tilt>0</tilt>
			<gx:fovy>35</gx:fovy>
			<range>23076.13027367198</range>
			<altitudeMode>relativeToGround</altitudeMode>
		</LookAt>
		<styleUrl>#__managed_style_02AF5381543D9A72F431</styleUrl>
		<Point>
			<altitudeMode>relativeToGround</altitudeMode>
			<coordinates>80.7692959,6.9606886,0</coordinates>
		</Point>
	</Placemark>
	<Placemark id="0AC7C79B503D9A74CB96">
		<name>Pasikuda</name>
		<description><![CDATA[<div>District: Batticaloa<br></div>]]></description>
		<LookAt>
			<longitude>81.56387330000001</longitude>
			<latitude>7.926889300000001</latitude>
			<altitude>0</altitude>
			<heading>0</heading>
			<tilt>0</tilt>
			<gx:fovy>35</gx:fovy>
			<range>5672.026524810355</range>
			<altitudeMode>relativeToGround</altitudeMode>
		</LookAt>
		<styleUrl>#__managed_style_02AF5381543D9A72F431</styleUrl>
		<Point>
			<altitudeMode>relativeToGround</altitudeMode>
			<coordinates>81.56512699999999,7.922822999999998,0</coordinates>
		</Point>
	</Placemark>
	<Placemark id="0EFCB4112E3D9A758ECF">
		<name>Arugam Bay</name>
		<description><![CDATA[<div>District: Ampara<br></div>]]></description>
		<LookAt>
			<longitude>81.8261704</longitude>
			<latitude>6.8377511</latitude>
			<altitude>0</altitude>
			<heading>0</heading>
			<tilt>0</tilt>
			<gx:fovy>35</gx:fovy>
			<range>5690.928280628506</range>
			<altitudeMode>relativeToGround</altitudeMode>
		</LookAt>
		<styleUrl>#__managed_style_02AF5381543D9A72F431</styleUrl>
		<Point>
			<altitudeMode>relativeToGround</altitudeMode>
			<coordinates>81.82516869999999,6.837977099999999,0</coordinates>
		</Point>
	</Placemark>
	<Placemark id="0E5B11CBC03D9A763DD3">
		<name>Hikkaduwa</name>
		<description><![CDATA[<div>District: Galle<br></div>]]></description>
		<LookAt>
			<longitude>80.11903165</longitude>
			<latitude>6.12768935</latitude>
			<altitude>0</altitude>
			<heading>0</heading>
			<tilt>0</tilt>
			<gx:fovy>35</gx:fovy>
			<range>11557.09554373322</range>
			<altitudeMode>relativeToGround</altitudeMode>
		</LookAt>
		<styleUrl>#__managed_style_02AF5381543D9A72F431</styleUrl>
		<Point>
			<altitudeMode>relativeToGround</altitudeMode>
			<coordinates>80.1090375,6.1396164,0</coordinates>
		</Point>
	</Placemark>
	<Placemark id="07A4FEABB73D9A76D309">
		<name>Ella</name>
		<description><![CDATA[<div>District: Badulla<br></div>]]></description>
		<LookAt>
			<longitude>81.04734705</longitude>
			<latitude>6.865309</latitude>
			<altitude>0</altitude>
			<heading>0</heading>
			<tilt>0</tilt>
			<gx:fovy>35</gx:fovy>
			<range>5690.483951873203</range>
			<altitudeMode>relativeToGround</altitudeMode>
		</LookAt>
		<styleUrl>#__managed_style_02AF5381543D9A72F431</styleUrl>
		<Point>
			<altitudeMode>relativeToGround</altitudeMode>
			<coordinates>81.0491074,6.8731332,0</coordinates>
		</Point>
	</Placemark>
</Document>
</kml>
